{
  "type": "FeatureCollection",
  "features": [
    {
      "type": "Feature",
      "properties": {
        "norad_id": 25590,
        "name": "COSMOS 2361",
        "group": "musson",
        "lat": 34.1160661847004,
        "lon": -10.507159407763409,
        "alt_km": 998.9464630916336,
        "timestamp": "2025-12-11T22:43:47.538514+00:00",
        "meta_object_name": "COSMOS 2361",
        "meta_object_id": "1998-076A",
        "meta_epoch": "2025-12-11T12:39:02.255616",
        "meta_mean_motion": 13.73217339,
        "meta_eccentricity": 0.00300523,
        "meta_inclination": 82.9339,
        "meta_ra_of_asc_node": 344.9833,
        "meta_arg_of_pericenter": 269.1239,
        "meta_mean_anomaly": 210.1216,
        "meta_ephemeris_type": 0,
        "meta_classification_type": "U",
        "meta_norad_cat_id": 25590,
        "meta_element_set_no": 999,
        "meta_rev_at_epoch": 35094,
        "meta_bstar": 9.3804231e-05,
        "meta_mean_motion_dot": 1.02e-06,
        "meta_mean_motion_ddot": 0,
        "tle_line1": "1 25590U 98076A   25345.52710944  .00000102  00000+0  93804-4 0  9992",
        "tle_line2": "2 25590  82.9339 344.9833 0030052 269.1239 210.1216 13.73217339350946"
      },
      "geometry": {
        "type": "Point",
        "coordinates": [
          -10.507159407763409,
          34.1160661847004
        ]
      }
    },
    {
      "type": "Feature",
      "properties": {
        "norad_id": 26818,
        "name": "COSMOS 2378",
        "group": "musson",
        "lat": 74.44637394578126,
        "lon": 153.822343532959,
        "alt_km": 983.066534698829,
        "timestamp": "2025-12-11T22:43:47.538535+00:00",
        "meta_object_name": "COSMOS 2378",
        "meta_object_id": "2001-023A",
        "meta_epoch": "2025-12-11T12:16:55.674336",
        "meta_mean_motion": 13.74141871,
        "meta_eccentricity": 0.00323285,
        "meta_inclination": 82.9272,
        "meta_ra_of_asc_node": 0.6355,
        "meta_arg_of_pericenter": 208.3849,
        "meta_mean_anomaly": 263.5473,
        "meta_ephemeris_type": 0,
        "meta_classification_type": "U",
        "meta_norad_cat_id": 26818,
        "meta_element_set_no": 999,
        "meta_rev_at_epoch": 22906,
        "meta_bstar": 6.6025355e-05,
        "meta_mean_motion_dot": 7.7e-07,
        "meta_mean_motion_ddot": 0,
        "tle_line1": "1 26818U 01023A   25345.51175549  .00000077  00000+0  66025-4 0  9993",
        "tle_line2": "2 26818  82.9272   0.6355 0032328 208.3849 263.5473 13.74141871229064"
      },
      "geometry": {
        "type": "Point",
        "coordinates": [
          153.822343532959,
          74.44637394578126
        ]
      }
    },
    {
      "type": "Feature",
      "properties": {
        "norad_id": 27436,
        "name": "COSMOS 2389",
        "group": "musson",
        "lat": -51.75907536622966,
        "lon": -61.46236256951323,
        "alt_km": 1002.803014204389,
        "timestamp": "2025-12-11T22:43:47.538549+00:00",
        "meta_object_name": "COSMOS 2389",
        "meta_object_id": "2002-026A",
        "meta_epoch": "2025-12-11T15:06:17.041824",
        "meta_mean_motion": 13.75154443,
        "meta_eccentricity": 0.00476538,
        "meta_inclination": 82.9502,
        "meta_ra_of_asc_node": 307.8066,
        "meta_arg_of_pericenter": 63.7498,
        "meta_mean_anomaly": 112.53,
        "meta_ephemeris_type": 0,
        "meta_classification_type": "U",
        "meta_norad_cat_id": 27436,
        "meta_element_set_no": 999,
        "meta_rev_at_epoch": 18133,
        "meta_bstar": 9.2532036e-05,
        "meta_mean_motion_dot": 1.05e-06,
        "meta_mean_motion_ddot": 0,
        "tle_line1": "1 27436U 02026A   25345.62936391  .00000105  00000+0  92532-4 0  9990",
        "tle_line2": "2 27436  82.9502 307.8066 0047653  63.7498 112.5300 13.75154443181337"
      },
      "geometry": {
        "type": "Point",
        "coordinates": [
          -61.46236256951323,
          -51.75907536622966
        ]
      }
    },
    {
      "type": "Feature",
      "properties": {
        "norad_id": 27818,
        "name": "COSMOS 2398",
        "group": "musson",
        "lat": -82.87058036264398,
        "lon": 175.0019693695929,
        "alt_km": 1020.1393201307737,
        "timestamp": "2025-12-11T22:43:47.538561+00:00",
        "meta_object_name": "COSMOS 2398",
        "meta_object_id": "2003-023A",
        "meta_epoch": "2025-12-11T13:30:47.555424",
        "meta_mean_motion": 13.72385629,
        "meta_eccentricity": 0.00325347,
        "meta_inclination": 82.9484,
        "meta_ra_of_asc_node": 273.5653,
        "meta_arg_of_pericenter": 114.9453,
        "meta_mean_anomaly": 57.6155,
        "meta_ephemeris_type": 0,
        "meta_classification_type": "U",
        "meta_norad_cat_id": 27818,
        "meta_element_set_no": 999,
        "meta_rev_at_epoch": 12800,
        "meta_bstar": 9.9500504e-05,
        "meta_mean_motion_dot": 1.07e-06,
        "meta_mean_motion_ddot": 0,
        "tle_line1": "1 27818U 03023A   25345.56305041  .00000107  00000+0  99501-4 0  9992",
        "tle_line2": "2 27818  82.9484 273.5653 0032534 114.9453  57.6155 13.72385629128004"
      },
      "geometry": {
        "type": "Point",
        "coordinates": [
          175.0019693695929,
          -82.87058036264398
        ]
      }
    },
    {
      "type": "Feature",
      "properties": {
        "norad_id": 28380,
        "name": "COSMOS 2407",
        "group": "musson",
        "lat": 82.07827472494736,
        "lon": -29.13546003876187,
        "alt_km": 945.6814745344782,
        "timestamp": "2025-12-11T22:43:47.538572+00:00",
        "meta_object_name": "COSMOS 2407",
        "meta_object_id": "2004-028A",
        "meta_epoch": "2025-12-11T15:23:19.500288",
        "meta_mean_motion": 13.7631346,
        "meta_eccentricity": 0.00403699,
        "meta_inclination": 82.9608,
        "meta_ra_of_asc_node": 213.7061,
        "meta_arg_of_pericenter": 57.8344,
        "meta_mean_anomaly": 320.821,
        "meta_ephemeris_type": 0,
        "meta_classification_type": "U",
        "meta_norad_cat_id": 28380,
        "meta_element_set_no": 999,
        "meta_rev_at_epoch": 7408,
        "meta_bstar": 6.3147181e-05,
        "meta_mean_motion_dot": 7.8e-07,
        "meta_mean_motion_ddot": 0,
        "tle_line1": "1 28380U 04028A   25345.64119792  .00000078  00000+0  63147-4 0  9992",
        "tle_line2": "2 28380  82.9608 213.7061 0040369  57.8344 320.8210 13.76313460 74088"
      },
      "geometry": {
        "type": "Point",
        "coordinates": [
          -29.13546003876187,
          82.07827472494736
        ]
      }
    },
    {
      "type": "Feature",
      "properties": {
        "norad_id": 28521,
        "name": "COSMOS 2414",
        "group": "musson",
        "lat": -36.02155715914107,
        "lon": -179.90354215396368,
        "alt_km": 972.1179069716381,
        "timestamp": "2025-12-11T22:43:47.538583+00:00",
        "meta_object_name": "COSMOS 2414",
        "meta_object_id": "2005-002A",
        "meta_epoch": "2025-12-11T12:31:28.562304",
        "meta_mean_motion": 13.87902681,
        "meta_eccentricity": 0.00408241,
        "meta_inclination": 82.9492,
        "meta_ra_of_asc_node": 185.581,
        "meta_arg_of_pericenter": 143.0896,
        "meta_mean_anomaly": 217.309,
        "meta_ephemeris_type": 0,
        "meta_classification_type": "U",
        "meta_norad_cat_id": 28521,
        "meta_element_set_no": 999,
        "meta_rev_at_epoch": 5778,
        "meta_bstar": 7.1475655e-05,
        "meta_mean_motion_dot": 1.02e-06,
        "meta_mean_motion_ddot": 0,
        "tle_line1": "1 28521U 05002A   25345.52185836  .00000102  00000+0  71476-4 0  9993",
        "tle_line2": "2 28521  82.9492 185.5810 0040824 143.0896 217.3090 13.87902681 57785"
      },
      "geometry": {
        "type": "Point",
        "coordinates": [
          -179.90354215396368,
          -36.02155715914107
        ]
      }
    },
    {
      "type": "Feature",
      "properties": {
        "norad_id": 32052,
        "name": "COSMOS 2429",
        "group": "musson",
        "lat": 44.91449126447147,
        "lon": 156.83715433972228,
        "alt_km": 979.4709701047859,
        "timestamp": "2025-12-11T22:43:47.538594+00:00",
        "meta_object_name": "COSMOS 2429",
        "meta_object_id": "2007-038A",
        "meta_epoch": "2025-12-11T11:36:13.519584",
        "meta_mean_motion": 13.75149217,
        "meta_eccentricity": 0.00393035,
        "meta_inclination": 82.9803,
        "meta_ra_of_asc_node": 344.2349,
        "meta_arg_of_pericenter": 41.2864,
        "meta_mean_anomaly": 319.1252,
        "meta_ephemeris_type": 0,
        "meta_classification_type": "U",
        "meta_norad_cat_id": 32052,
        "meta_element_set_no": 999,
        "meta_rev_at_epoch": 91585,
        "meta_bstar": 8.2094915e-05,
        "meta_mean_motion_dot": 9.4e-07,
        "meta_mean_motion_ddot": 0,
        "tle_line1": "1 32052U 07038A   25345.48348981  .00000094  00000+0  82095-4 0  9994",
        "tle_line2": "2 32052  82.9803 344.2349 0039303  41.2864 319.1252 13.75149217915857"
      },
      "geometry": {
        "type": "Point",
        "coordinates": [
          156.83715433972228,
          44.91449126447147
        ]
      }
    },
    {
      "type": "Feature",
      "properties": {
        "norad_id": 35635,
        "name": "COSMOS 2454",
        "group": "musson",
        "lat": 7.813945479349456,
        "lon": 170.2182050805767,
        "alt_km": 925.0500965212423,
        "timestamp": "2025-12-11T22:43:47.538605+00:00",
        "meta_object_name": "COSMOS 2454",
        "meta_object_id": "2009-039A",
        "meta_epoch": "2025-12-11T12:34:42.401568",
        "meta_mean_motion": 13.89928401,
        "meta_eccentricity": 0.00204682,
        "meta_inclination": 82.9554,
        "meta_ra_of_asc_node": 169.5666,
        "meta_arg_of_pericenter": 76.9929,
        "meta_mean_anomaly": 335.9587,
        "meta_ephemeris_type": 0,
        "meta_classification_type": "U",
        "meta_norad_cat_id": 35635,
        "meta_element_set_no": 999,
        "meta_rev_at_epoch": 83133,
        "meta_bstar": 7.7573029e-05,
        "meta_mean_motion_dot": 1.12e-06,
        "meta_mean_motion_ddot": 0,
        "tle_line1": "1 35635U 09039A   25345.52410187  .00000112  00000+0  77573-4 0  9996",
        "tle_line2": "2 35635  82.9554 169.5666 0020468  76.9929 335.9587 13.89928401831331"
      },
      "geometry": {
        "type": "Point",
        "coordinates": [
          170.2182050805767,
          7.813945479349456
        ]
      }
    },
    {
      "type": "Feature",
      "properties": {
        "norad_id": 36519,
        "name": "COSMOS 2463",
        "group": "musson",
        "lat": 77.27606506823656,
        "lon": 174.12420830577085,
        "alt_km": 1011.7137545854566,
        "timestamp": "2025-12-11T22:43:47.538615+00:00",
        "meta_object_name": "COSMOS 2463",
        "meta_object_id": "2010-017A",
        "meta_epoch": "2025-12-11T14:13:57.760896",
        "meta_mean_motion": 13.71649103,
        "meta_eccentricity": 0.00348194,
        "meta_inclination": 82.9614,
        "meta_ra_of_asc_node": 27.5553,
        "meta_arg_of_pericenter": 291.3603,
        "meta_mean_anomaly": 221.8907,
        "meta_ephemeris_type": 0,
        "meta_classification_type": "U",
        "meta_norad_cat_id": 36519,
        "meta_element_set_no": 999,
        "meta_rev_at_epoch": 78221,
        "meta_bstar": 6.3765742e-05,
        "meta_mean_motion_dot": 7.2e-07,
        "meta_mean_motion_ddot": 0,
        "tle_line1": "1 36519U 10017A   25345.59302964  .00000072  00000+0  63766-4 0  9990",
        "tle_line2": "2 36519  82.9614  27.5553 0034819 291.3603 221.8907 13.71649103782216"
      },
      "geometry": {
        "type": "Point",
        "coordinates": [
          174.12420830577085,
          77.27606506823656
        ]
      }
    }
  ]
}